H1 CPF  1  HTS 2022  6  3 12  6541 larets           NONE
H2  0304206 5557    27944 2022 06 03  0  0  0 2022 06 08  0  0  0   180 1 1  0 0 0
H5  0.0560 
H9 
10 0 59737  45000.00000  0   -5970575.994   -3027749.138   -2236915.736
10 0 59737  45180.00000  0   -6366836.918   -2898828.566    -934510.109
10 0 59737  45360.00000  0   -6525867.991   -2656823.846     402246.197
10 0 59737  45540.00000  0   -6439032.160   -2316882.417    1724210.347
10 0 59737  45720.00000  0   -6107224.907   -1897873.832    2982787.930
10 0 59737  45900.00000  0   -5540906.267   -1421428.540    4131781.205
10 0 59737  46080.00000  0   -4759726.571    -910873.414    5129126.966
10 0 59737  46260.00000  0   -3791770.554    -390123.260    5938440.643
10 0 59737  46440.00000  0   -2672477.282     117412.829    6530318.820
10 0 59737  46620.00000  0   -1443280.443     589861.519    6883362.242
10 0 59737  46800.00000  0    -150036.164    1007804.243    6984893.334
10 0 59737  46980.00000  0    1158696.463    1355057.251    6831363.836
10 0 59737  47160.00000  0    2433467.841    1619287.684    6428454.248
10 0 59737  47340.00000  0    3625790.232    1792446.019    5790866.778
10 0 59737  47520.00000  0    4689975.541    1871002.281    4941816.038
10 0 59737  47700.00000  0    5584894.820    1855981.415    3912224.952
10 0 59737  47880.00000  0    6275603.546    1752797.435    2739638.626
10 0 59737  48060.00000  0    6734751.534    1570888.032    1466874.433
10 0 59737  48240.00000  0    6943714.457    1323166.185     140459.439
10 0 59737  48420.00000  0    6893384.027    1025314.644   -1191093.430
10 0 59737  48600.00000  0    6584571.054     694956.566   -2479096.269
10 0 59737  48780.00000  0    6027999.844     350743.162   -3676500.088
10 0 59737  48960.00000  0    5243897.655      11411.053   -4739636.187
10 0 59737  49140.00000  0    4261200.773    -305143.100   -5629807.821
10 0 59737  49320.00000  0    3116430.281    -582724.055   -6314669.560
10 0 59737  49500.00000  0    1852294.489    -807598.363   -6769360.428
10 0 59737  49680.00000  0     516077.312    -969121.581   -6977356.814
10 0 59737  49860.00000  0    -842123.011   -1060210.132   -6931036.756
10 0 59737  50040.00000  0   -2171250.405   -1077640.213   -6631946.981
10 0 59737  50220.00000  0   -3421187.069   -1022165.750   -6090768.358
10 0 59737  50400.00000  0   -4544629.751    -898450.513   -5326978.794
10 0 59737  50580.00000  0   -5498897.832    -714816.741   -4368217.331
10 0 59737  50760.00000  0   -6247604.797    -482816.537   -3249344.571
10 0 59737  50940.00000  0   -6762122.640    -216640.164   -2011216.387
10 0 59737  51120.00000  0   -7022763.817      67615.428    -699200.639
10 0 59737  51300.00000  0   -7019612.755     352784.984     638515.421
10 0 59737  51480.00000  0   -6752944.372     621536.482    1952751.539
10 0 59737  51660.00000  0   -6233213.955     857285.245    3195206.626
10 0 59737  51840.00000  0   -5480612.089    1045071.677    4320294.846
10 0 59737  52020.00000  0   -4524210.406    1172354.924    5286852.707
10 0 59737  52200.00000  0   -3400758.146    1229681.211    6059643.625
10 0 59737  52380.00000  0   -2153199.564    1211196.860    6610613.413
10 0 59737  52560.00000  0    -828977.682    1114986.125    6919862.589
10 0 59737  52740.00000  0     521798.361     943221.313    6976306.754
10 0 59737  52920.00000  0    1848246.322     702121.262    6778028.156
10 0 59737  53100.00000  0    3100610.200     401722.456    6332322.131
10 0 59737  53280.00000  0    4232112.150      55469.540    5655439.108
10 0 59737  53460.00000  0    5200700.295    -320362.528    4772022.396
10 0 59737  53640.00000  0    5970631.588    -707394.958    3714251.652
10 0 59737  53820.00000  0    6513833.478   -1085991.974    2520707.837
10 0 59737  54000.00000  0    6810981.311   -1436192.166    1234983.549
10 0 59737  54180.00000  0    6852233.630   -1738680.870     -95912.893
10 0 59737  54360.00000  0    6637589.196   -1975758.435   -1423301.383
10 0 59737  54540.00000  0    6176835.423   -2132249.429   -2698649.434
10 0 59737  54720.00000  0    5489092.226   -2196306.008   -3875381.003
10 0 59737  54900.00000  0    4601980.635   -2160063.849   -4910593.415
10 0 59737  55080.00000  0    3550465.933   -2020120.694   -5766616.191
10 0 59737  55260.00000  0    2375432.244   -1777816.874   -6412351.219
10 0 59737  55440.00000  0    1122066.990   -1439306.284   -6824355.993
10 0 59737  55620.00000  0    -161883.125   -1015417.397   -6987649.931
10 0 59737  55800.00000  0   -1427918.320    -521312.408   -6896224.412
10 0 59737  55980.00000  0   -2628595.319      24046.050   -6553256.355
10 0 59737  56160.00000  0   -3719286.830     598607.434   -5971018.279
10 0 59737  56340.00000  0   -4659838.159    1178103.137   -5170489.606
10 0 59737  56520.00000  0   -5416075.807    1737048.322   -4180666.056
10 0 59737  56700.00000  0   -5961108.309    2249845.212   -3037568.084
10 0 59737  56880.00000  0   -6276356.114    2691937.516   -1782964.413
10 0 59737  57060.00000  0   -6352258.881    3040962.425    -462848.612
10 0 59737  57240.00000  0   -6188613.931    3277842.267     874280.587
10 0 59737  57420.00000  0   -5794514.915    3387752.752    2179262.104
10 0 59737  57600.00000  0   -5187888.422    3360914.073    3404146.709
10 0 59737  57780.00000  0   -4394659.675    3193161.347    4504013.319
10 0 59737  57960.00000  0   -3447595.296    2886264.565    5438644.949
10 0 59737  58140.00000  0   -2384893.143    2447989.818    6173994.076
10 0 59737  58320.00000  0   -1248589.735    1891903.839    6683391.217
10 0 59737  58500.00000  0     -82862.826    1236932.160    6948457.397
10 0 59737  58680.00000  0    1067691.719     506695.713    6959709.702
10 0 59737  58860.00000  0    2159754.098    -271347.741    6716861.428
10 0 59737  59040.00000  0    3152894.367   -1066930.951    6228816.141
10 0 59737  59220.00000  0    4011060.141   -1848143.810    5513356.785
10 0 59737  59400.00000  0    4703891.836   -2582701.738    4596530.173
10 0 59737  59580.00000  0    5207818.077   -3239272.000    3511740.267
10 0 59737  59760.00000  0    5506893.781   -3788808.900    2298565.411
10 0 59737  59940.00000  0    5593334.385   -4205835.059    1001326.241
10 0 59737  60120.00000  0    5467717.748   -4469608.537    -332541.256
10 0 59737  60300.00000  0    5138842.883   -4565114.464   -1654247.477
10 0 59737  60480.00000  0    4623246.968   -4483826.766   -2915472.100
10 0 59737  60660.00000  0    3944404.584   -4224198.987   -4070163.408
10 0 59737  60840.00000  0    3131654.735   -3791861.761   -5076235.001
10 0 59737  61020.00000  0    2218913.629   -3199520.647   -5897089.415
10 0 59737  61200.00000  0    1243243.245   -2466568.076   -6502912.333
10 0 59737  61380.00000  0     243342.790   -1618432.560   -6871711.151
10 0 59737  61560.00000  0    -741981.065    -685684.714   -6990069.446
10 0 59737  61740.00000  0   -1675302.532     297060.214   -6853602.229
10 0 59737  61920.00000  0   -2521980.790    1292408.085   -6467114.490
10 0 59737  62100.00000  0   -3251436.499    2261586.002   -5844459.222
10 0 59737  62280.00000  0   -3838264.750    3165937.850   -5008097.032
10 0 59737  62460.00000  0   -4263152.728    3968471.334   -3988351.037
10 0 59737  62640.00000  0   -4513556.916    4635394.241   -2822358.157
10 0 59737  62820.00000  0   -4584104.954    5137572.228   -1552746.816
10 0 59737  63000.00000  0   -4476703.957    5451837.425    -226077.377
10 0 59737  63180.00000  0   -4200338.235    5562077.612    1108903.241
10 0 59737  63360.00000  0   -3770558.486    5460037.550    2403114.494
10 0 59737  63540.00000  0   -3208686.868    5145784.502    3609017.261
10 0 59737  63720.00000  0   -2540779.370    4627812.309    4682410.494
10 0 59737  63900.00000  0   -1796413.031    3922790.470    5584071.913
10 0 59737  64080.00000  0   -1007362.274    3054974.045    6281181.725
10 0 59737  64260.00000  0    -206231.285    2055309.883    6748477.095
10 0 59737  64440.00000  0     574891.609     960289.838    6969111.417
10 0 59737  64620.00000  0    1305709.377    -189401.840    6935210.023
10 0 59737  64800.00000  0    1958877.501   -1350398.900    6648116.820
10 0 59737  64980.00000  0    2511015.238   -2478277.538    6118334.964
10 0 59737  65160.00000  0    2943539.007   -3529245.594    5365161.481
10 0 59737  65340.00000  0    3243290.774   -4461841.980    4416018.704
10 0 59737  65520.00000  0    3402940.522   -5238586.032    3305495.978
10 0 59737  65700.00000  0    3421146.694   -5827511.989    2074118.538
10 0 59737  65880.00000  0    3302462.877   -6203517.621     766878.754
10 0 59737  66060.00000  0    3056993.594   -6349457.806    -568417.620
10 0 59737  66240.00000  0    2699816.480   -6256930.862   -1882927.935
10 0 59737  66420.00000  0    2250191.442   -5926706.123   -3128599.453
10 0 59737  66600.00000  0    1730600.933   -5368772.514   -4259959.064
10 0 59737  66780.00000  0    1165670.818   -4602002.481   -5235785.900
10 0 59737  66960.00000  0     581037.548   -3653461.539   -6020595.238
10 0 59737  67140.00000  0       2212.761   -2557406.834   -6585891.406
10 0 59737  67320.00000  0    -546505.874   -1354019.757   -6911153.607
10 0 59737  67500.00000  0   -1043032.319     -87925.775   -6984536.707
10 0 59737  67680.00000  0   -1468363.997    1193447.463   -6803276.737
10 0 59737  67860.00000  0   -1807301.877    2441620.675   -6373796.065
10 0 59737  68040.00000  0   -2048995.731    3608874.468   -5711510.675
10 0 59737  68220.00000  0   -2187299.862    4650073.210   -4840335.696
10 0 59737  68400.00000  0   -2220925.258    5524439.706   -3791884.499
10 0 59737  68580.00000  0   -2153377.908    6197206.385   -2604368.053
10 0 59737  68760.00000  0   -1992679.831    6641066.229   -1321226.677
10 0 59737  68940.00000  0   -1750885.245    6837352.459      10467.631
10 0 59737  69120.00000  0   -1443411.544    6776879.494    1341776.074
10 0 59737  69300.00000  0   -1088215.731    6460390.026    2623760.763
99
